{"fetched_at":"2026-07-13T18:16:36.647Z","source":"https://celestrak.org/NORAD/elements/gp.php?GROUP=spire&FORMAT=JSON","constellation":"spire","records":[{"OBJECT_NAME":"LEMUR-1","OBJECT_ID":"2014-033AL","EPOCH":"2026-07-11T21:11:51.417600","CLASSIFICATION_TYPE":"U","MEAN_MOTION":14.85331099,"ECCENTRICITY":0.0048047,"INCLINATION":97.7903,"RA_OF_ASC_NODE":342.1444,"ARG_OF_PERICENTER":358.865,"MEAN_ANOMALY":1.2448,"EPHEMERIS_TYPE":0,"NORAD_CAT_ID":40044,"ELEMENT_SET_NO":999,"REV_AT_EPOCH":64913,"BSTAR":0.00010759,"MEAN_MOTION_DOT":0.00000888,"MEAN_MOTION_DDOT":0},{"OBJECT_NAME":"LEMUR-2-GREENBERG","OBJECT_ID":"2017-042N","EPOCH":"2026-07-09T11:53:19.376160","CLASSIFICATION_TYPE":"U","MEAN_MOTION":15.32031511,"ECCENTRICITY":0.00071356,"INCLINATION":97.3831,"RA_OF_ASC_NODE":11.0293,"ARG_OF_PERICENTER":283.6729,"MEAN_ANOMALY":76.3718,"EPHEMERIS_TYPE":0,"NORAD_CAT_ID":42837,"ELEMENT_SET_NO":999,"REV_AT_EPOCH":49180,"BSTAR":0.0003749711,"MEAN_MOTION_DOT":0.00011532,"MEAN_MOTION_DDOT":0},{"OBJECT_NAME":"LEMUR-2-ANDIS","OBJECT_ID":"2017-042P","EPOCH":"2026-07-12T11:15:38.397024","CLASSIFICATION_TYPE":"U","MEAN_MOTION":15.35849981,"ECCENTRICITY":0.0007132,"INCLINATION":97.3674,"RA_OF_ASC_NODE":14.2674,"ARG_OF_PERICENTER":269.8003,"MEAN_ANOMALY":90.2423,"EPHEMERIS_TYPE":0,"NORAD_CAT_ID":42838,"ELEMENT_SET_NO":999,"REV_AT_EPOCH":49233,"BSTAR":0.00036920282,"MEAN_MOTION_DOT":0.00012815,"MEAN_MOTION_DDOT":0},{"OBJECT_NAME":"LEMUR-2-MONSON","OBJECT_ID":"2017-042Q","EPOCH":"2026-07-10T11:15:45.883584","CLASSIFICATION_TYPE":"U","MEAN_MOTION":15.28674858,"ECCENTRICITY":0.00051568,"INCLINATION":97.4089,"RA_OF_ASC_NODE":11.9359,"ARG_OF_PERICENTER":266.7916,"MEAN_ANOMALY":93.2733,"EPHEMERIS_TYPE":0,"NORAD_CAT_ID":42839,"ELEMENT_SET_NO":999,"REV_AT_EPOCH":49172,"BSTAR":0.00034676682,"MEAN_MOTION_DOT":0.000096,"MEAN_MOTION_DDOT":0},{"OBJECT_NAME":"LEMUR-2-FURIAUS","OBJECT_ID":"2017-042R","EPOCH":"2026-07-12T10:41:36.677760","CLASSIFICATION_TYPE":"U","MEAN_MOTION":15.31072029,"ECCENTRICITY":0.00062398,"INCLINATION":97.3775,"RA_OF_ASC_NODE":11.8672,"ARG_OF_PERICENTER":340.6601,"MEAN_ANOMALY":19.4403,"EPHEMERIS_TYPE":0,"NORAD_CAT_ID":42840,"ELEMENT_SET_NO":999,"REV_AT_EPOCH":49207,"BSTAR":0.00035675373,"MEAN_MOTION_DOT":0.00010642,"MEAN_MOTION_DDOT":0},{"OBJECT_NAME":"LEMUR-2-PETERG","OBJECT_ID":"2017-042S","EPOCH":"2026-07-13T06:01:06.210912","CLASSIFICATION_TYPE":"U","MEAN_MOTION":15.34983018,"ECCENTRICITY":0.00031743,"INCLINATION":97.3989,"RA_OF_ASC_NODE":19.3442,"ARG_OF_PERICENTER":228.3725,"MEAN_ANOMALY":131.7247,"EPHEMERIS_TYPE":0,"NORAD_CAT_ID":42841,"ELEMENT_SET_NO":999,"REV_AT_EPOCH":49243,"BSTAR":0.00037305717,"MEAN_MOTION_DOT":0.00012587,"MEAN_MOTION_DDOT":0},{"OBJECT_NAME":"LEMUR-2-DEMBITZ","OBJECT_ID":"2017-042T","EPOCH":"2026-07-12T22:08:46.848480","CLASSIFICATION_TYPE":"U","MEAN_MOTION":15.31066311,"ECCENTRICITY":0.00050539,"INCLINATION":97.3822,"RA_OF_ASC_NODE":15.3838,"ARG_OF_PERICENTER":284.9357,"MEAN_ANOMALY":75.1324,"EPHEMERIS_TYPE":0,"NORAD_CAT_ID":42842,"ELEMENT_SET_NO":999,"REV_AT_EPOCH":49228,"BSTAR":0.0004216073,"MEAN_MOTION_DOT":0.00012588,"MEAN_MOTION_DDOT":0},{"OBJECT_NAME":"LEMUR-2-ZACHARY","OBJECT_ID":"2017-042W","EPOCH":"2026-07-12T11:22:55.117920","CLASSIFICATION_TYPE":"U","MEAN_MOTION":15.52533794,"ECCENTRICITY":0.00024605,"INCLINATION":97.3575,"RA_OF_ASC_NODE":25.6887,"ARG_OF_PERICENTER":261.6834,"MEAN_ANOMALY":98.414,"EPHEMERIS_TYPE":0,"NORAD_CAT_ID":42845,"ELEMENT_SET_NO":999,"REV_AT_EPOCH":49312,"BSTAR":0.00052089587,"MEAN_MOTION_DOT":0.00031926,"MEAN_MOTION_DDOT":0},{"OBJECT_NAME":"LEMUR-2-AMANDA-SVANTE","OBJECT_ID":"2021-034B","EPOCH":"2026-07-12T18:42:41.198400","CLASSIFICATION_TYPE":"U","MEAN_MOTION":15.35862163,"ECCENTRICITY":0.00045305,"INCLINATION":97.5758,"RA_OF_ASC_NODE":272.7671,"ARG_OF_PERICENTER":149.3541,"MEAN_ANOMALY":210.7967,"EPHEMERIS_TYPE":0,"NORAD_CAT_ID":48269,"ELEMENT_SET_NO":999,"REV_AT_EPOCH":28498,"BSTAR":0.00074134462,"MEAN_MOTION_DOT":0.00025852,"MEAN_MOTION_DDOT":0},{"OBJECT_NAME":"LEMUR-2-SPECIAL-K","OBJECT_ID":"2021-034F","EPOCH":"2026-07-12T18:59:05.709984","CLASSIFICATION_TYPE":"U","MEAN_MOTION":15.73857408,"ECCENTRICITY":0.00062099,"INCLINATION":97.564,"RA_OF_ASC_NODE":282.6731,"ARG_OF_PERICENTER":216.3246,"MEAN_ANOMALY":143.7597,"EPHEMERIS_TYPE":0,"NORAD_CAT_ID":48273,"ELEMENT_SET_NO":999,"REV_AT_EPOCH":28570,"BSTAR":0.0015539726,"MEAN_MOTION_DOT":0.00224827,"MEAN_MOTION_DDOT":0},{"OBJECT_NAME":"LEMUR-2-EMBRIONOVIS","OBJECT_ID":"2023-084AQ","EPOCH":"2026-07-12T20:06:50.507712","CLASSIFICATION_TYPE":"U","MEAN_MOTION":15.38191733,"ECCENTRICITY":0.00080969,"INCLINATION":97.6313,"RA_OF_ASC_NODE":339.0377,"ARG_OF_PERICENTER":215.5388,"MEAN_ANOMALY":144.5318,"EPHEMERIS_TYPE":0,"NORAD_CAT_ID":56970,"ELEMENT_SET_NO":999,"REV_AT_EPOCH":17162,"BSTAR":0.00026204759,"MEAN_MOTION_DOT":0.0000978,"MEAN_MOTION_DDOT":0},{"OBJECT_NAME":"LEMUR-2-DEVERILL-M-T","OBJECT_ID":"2023-100F","EPOCH":"2026-07-13T00:33:25.559136","CLASSIFICATION_TYPE":"U","MEAN_MOTION":15.41024565,"ECCENTRICITY":0.00046595,"INCLINATION":99.4456,"RA_OF_ASC_NODE":240.2682,"ARG_OF_PERICENTER":306.562,"MEAN_ANOMALY":53.519,"EPHEMERIS_TYPE":0,"NORAD_CAT_ID":57391,"ELEMENT_SET_NO":999,"REV_AT_EPOCH":16522,"BSTAR":0.0004809621,"MEAN_MOTION_DOT":0.00019765,"MEAN_MOTION_DDOT":0},{"OBJECT_NAME":"LEMUR-2-BASS","OBJECT_ID":"2023-174D","EPOCH":"2026-07-12T22:44:15.073152","CLASSIFICATION_TYPE":"U","MEAN_MOTION":15.43947109,"ECCENTRICITY":0.00077681,"INCLINATION":97.3851,"RA_OF_ASC_NODE":279.0335,"ARG_OF_PERICENTER":85.0548,"MEAN_ANOMALY":275.1587,"EPHEMERIS_TYPE":0,"NORAD_CAT_ID":58259,"ELEMENT_SET_NO":999,"REV_AT_EPOCH":14933,"BSTAR":0.0002892081,"MEAN_MOTION_DOT":0.00013088,"MEAN_MOTION_DDOT":0},{"OBJECT_NAME":"LEMUR-2-JK0903EM1407","OBJECT_ID":"2023-174CJ","EPOCH":"2026-07-13T01:22:12.874080","CLASSIFICATION_TYPE":"U","MEAN_MOTION":15.52994867,"ECCENTRICITY":0.00038163,"INCLINATION":97.3925,"RA_OF_ASC_NODE":285.2802,"ARG_OF_PERICENTER":41.2972,"MEAN_ANOMALY":318.8569,"EPHEMERIS_TYPE":0,"NORAD_CAT_ID":58336,"ELEMENT_SET_NO":999,"REV_AT_EPOCH":14974,"BSTAR":0.00033514093,"MEAN_MOTION_DOT":0.00020824,"MEAN_MOTION_DDOT":0},{"OBJECT_NAME":"LEMUR-2-MJR092620","OBJECT_ID":"2023-174CN","EPOCH":"2026-07-13T06:05:42.430848","CLASSIFICATION_TYPE":"U","MEAN_MOTION":15.45816527,"ECCENTRICITY":0.0005478,"INCLINATION":97.3982,"RA_OF_ASC_NODE":284.7794,"ARG_OF_PERICENTER":36.7189,"MEAN_ANOMALY":323.4434,"EPHEMERIS_TYPE":0,"NORAD_CAT_ID":58340,"ELEMENT_SET_NO":999,"REV_AT_EPOCH":14967,"BSTAR":0.00025101764,"MEAN_MOTION_DOT":0.00012086,"MEAN_MOTION_DDOT":0},{"OBJECT_NAME":"LEMUR-2-NIMBUS2000","OBJECT_ID":"2024-022A","EPOCH":"2026-07-13T01:27:37.186848","CLASSIFICATION_TYPE":"U","MEAN_MOTION":15.41057273,"ECCENTRICITY":0.00089728,"INCLINATION":97.4085,"RA_OF_ASC_NODE":44.4028,"ARG_OF_PERICENTER":35.7134,"MEAN_ANOMALY":324.4711,"EPHEMERIS_TYPE":0,"NORAD_CAT_ID":58899,"ELEMENT_SET_NO":999,"REV_AT_EPOCH":13625,"BSTAR":0.0003640653,"MEAN_MOTION_DOT":0.00014985,"MEAN_MOTION_DDOT":0}]}
